{
  "type": "FeatureCollection",
  "features": [
    {
      "type": "Feature",
      "properties": {
        "norad_id": 19071,
        "name": "OSCAR 32",
        "group": "nnss",
        "lat": -1.7449029232956208,
        "lon": -163.0782050780855,
        "alt_km": 1066.6453683973368,
        "timestamp": "2025-12-25T20:42:38.956508+00:00",
        "meta_object_name": "OSCAR 32",
        "meta_object_id": "1988-033B",
        "meta_epoch": "2025-12-25T01:46:19.026912",
        "meta_mean_motion": 13.27955759,
        "meta_eccentricity": 0.01892356,
        "meta_inclination": 90.3208,
        "meta_ra_of_asc_node": 16.907,
        "meta_arg_of_pericenter": 132.6407,
        "meta_mean_anomaly": 237.0138,
        "meta_ephemeris_type": 0,
        "meta_classification_type": "U",
        "meta_norad_cat_id": 19071,
        "meta_element_set_no": 999,
        "meta_rev_at_epoch": 82429,
        "meta_bstar": 9.9554128e-05,
        "meta_mean_motion_dot": 5.9e-07,
        "meta_mean_motion_ddot": 0,
        "tle_line1": "1 19071U 88033B   25359.07383133  .00000059  00000+0  99554-4 0  9991",
        "tle_line2": "2 19071  90.3208  16.9070 0189235 132.6407 237.0138 13.27955759824298"
      },
      "geometry": {
        "type": "Point",
        "coordinates": [
          -163.0782050780855,
          -1.7449029232956208
        ]
      }
    },
    {
      "type": "Feature",
      "properties": {
        "norad_id": 19223,
        "name": "NOVA 2",
        "group": "nnss",
        "lat": 39.36496317806214,
        "lon": -101.75536689311154,
        "alt_km": 1191.4742934487813,
        "timestamp": "2025-12-25T20:42:38.956518+00:00",
        "meta_object_name": "NOVA 2",
        "meta_object_id": "1988-052A",
        "meta_epoch": "2025-12-25T05:45:03.256992",
        "meta_mean_motion": 13.22937288,
        "meta_eccentricity": 0.00295267,
        "meta_inclination": 89.9863,
        "meta_ra_of_asc_node": 78.2567,
        "meta_arg_of_pericenter": 342.2232,
        "meta_mean_anomaly": 71.2778,
        "meta_ephemeris_type": 0,
        "meta_classification_type": "U",
        "meta_norad_cat_id": 19223,
        "meta_element_set_no": 999,
        "meta_rev_at_epoch": 81113,
        "meta_bstar": 0.00013822549,
        "meta_mean_motion_dot": 6.7e-07,
        "meta_mean_motion_ddot": 0,
        "tle_line1": "1 19223U 88052A   25359.23962103  .00000067  00000+0  13823-3 0  9992",
        "tle_line2": "2 19223  89.9863  78.2567 0029526 342.2232  71.2778 13.22937288811130"
      },
      "geometry": {
        "type": "Point",
        "coordinates": [
          -101.75536689311154,
          39.36496317806214
        ]
      }
    },
    {
      "type": "Feature",
      "properties": {
        "norad_id": 19419,
        "name": "OSCAR 25",
        "group": "nnss",
        "lat": 64.78292969253178,
        "lon": 20.21525326500235,
        "alt_km": 1149.9782916176327,
        "timestamp": "2025-12-25T20:42:38.956528+00:00",
        "meta_object_name": "OSCAR 25",
        "meta_object_id": "1988-074A",
        "meta_epoch": "2025-12-25T01:01:12.412128",
        "meta_mean_motion": 13.42625537,
        "meta_eccentricity": 0.00952001,
        "meta_inclination": 90.0336,
        "meta_ra_of_asc_node": 20.2839,
        "meta_arg_of_pericenter": 210.2725,
        "meta_mean_anomaly": 211.9682,
        "meta_ephemeris_type": 0,
        "meta_classification_type": "U",
        "meta_norad_cat_id": 19419,
        "meta_element_set_no": 999,
        "meta_rev_at_epoch": 82805,
        "meta_bstar": 0.00012533496,
        "meta_mean_motion_dot": 8.2e-07,
        "meta_mean_motion_ddot": 0,
        "tle_line1": "1 19419U 88074A   25359.04250477  .00000082  00000+0  12533-3 0  9990",
        "tle_line2": "2 19419  90.0336  20.2839 0095200 210.2725 211.9682 13.42625537828056"
      },
      "geometry": {
        "type": "Point",
        "coordinates": [
          20.21525326500235,
          64.78292969253178
        ]
      }
    },
    {
      "type": "Feature",
      "properties": {
        "norad_id": 19420,
        "name": "OSCAR 31",
        "group": "nnss",
        "lat": -51.62112958441796,
        "lon": 20.68355434689252,
        "alt_km": 1125.7940926678511,
        "timestamp": "2025-12-25T20:42:38.956538+00:00",
        "meta_object_name": "OSCAR 31",
        "meta_object_id": "1988-074B",
        "meta_epoch": "2025-12-25T01:25:51.942144",
        "meta_mean_motion": 13.42586559,
        "meta_eccentricity": 0.00935959,
        "meta_inclination": 90.0354,
        "meta_ra_of_asc_node": 20.636,
        "meta_arg_of_pericenter": 204.3708,
        "meta_mean_anomaly": 182.6411,
        "meta_ephemeris_type": 0,
        "meta_classification_type": "U",
        "meta_norad_cat_id": 19420,
        "meta_element_set_no": 999,
        "meta_rev_at_epoch": 82816,
        "meta_bstar": 0.00010568619,
        "meta_mean_motion_dot": 7e-07,
        "meta_mean_motion_ddot": 0,
        "tle_line1": "1 19420U 88074B   25359.05962896  .00000070  00000+0  10569-3 0  9992",
        "tle_line2": "2 19420  90.0354  20.6360 0093595 204.3708 182.6411 13.42586559828167"
      },
      "geometry": {
        "type": "Point",
        "coordinates": [
          20.68355434689252,
          -51.62112958441796
        ]
      }
    }
  ]
}